CHUBUSAT-3              
1 41339U 16012C   21005.72411302  .00000374  00000-0  22138-4 0  9992
2 41339  31.0109 137.9862 0013872 328.7556  31.2258 15.00573444268133
HORYU-4                 
1 41340U 16012D   21005.64768104  .00000660  00000-0  42897-4 0  9992
2 41340  31.0048 123.9870 0013965 355.7207   4.3308 15.01703243268294
OUFTI-1                 
1 41458U 16025C   21005.90241934  .00003841  00000-0  19152-3 0  9993
2 41458  98.1219 133.5308 0159966 247.6008 110.8204 15.07711657257976
E-ST@R-II               
1 41459U 16025D   21005.87752096  .00002926  00000-0  14829-3 0  9995
2 41459  98.1210 132.7393 0161705 250.0406 108.3328 15.07211539257925
AAUSAT 4                
1 41460U 16025E   21005.81898768  .00004326  00000-0  20878-3 0  9995
2 41460  98.1198 135.7902 0149927 236.5110 122.1712 15.09879741258169
AIST-2D (RS-48)         
1 41465U 16026B   21005.83915969  .00002108  00000-0  63270-4 0  9996
2 41465  97.1265 255.3586 0009542 236.6729 187.6241 15.35497190262475
SAMSAT-218D             
1 41466U 16026C   21005.82606082  .00010853  00000-0  19339-3 0  9991
2 41466  97.1676 274.5928 0005854 163.6428 269.9142 15.50260006263603
NUSAT-1 (FRESCO)        
1 41557U 16033B   21005.78190791  .00001888  00000-0  70092-4 0  9992
2 41557  97.3989 100.7213 0014882  92.3495  22.3806 15.28735147256678
NUSAT-2 (BATATA)        
1 41558U 16033C   21005.80800580  .00002079  00000-0  72277-4 0  9990
2 41558  97.4067 103.8475 0013889  87.6807  26.6845 15.30796167256831
CARTOSAT-2C             
1 41599U 16040A   21005.84297741  .00000465  00000-0  25273-4 0  9997
2 41599  97.4237  68.2474 0012774 220.1485 245.2331 15.19233076251821
SATHYABAMASAT           
1 41600U 16040B   21005.82544806  .00002620  00000-0  10658-3 0  9990
2 41600  97.2969  67.2255 0013097 185.9510 174.1574 15.25331772252353
LAPAN-A3                
1 41603U 16040E   21005.85886426  .00000270  00000-0  15627-4 0  9994
2 41603  97.2814  58.7338 0012496 206.6637 268.6996 15.19940768251883
BIROS                   
1 41604U 16040F   21005.72774867  .00000617  00000-0  29681-4 0  9996
2 41604  97.2882  63.3839 0011954 186.0055 174.1040 15.22311024252142
SWAYAM                  
1 41607U 16040J   21005.68512005  .00002186  00000-0  90179-4 0  9991
2 41607  97.2926  66.0603 0012665 186.1521 173.9563 15.25036573252235
BEESAT-4                
1 41619U 16040W   21005.87724542  .00002153  00000-0  89608-4 0  9995
2 41619  97.2944  66.3894 0010891 177.3325 182.7973 15.24759403240239
3CAT-2                  
1 41732U 16051B   21005.84279650  .00001799  00000-0  67930-4 0  9994
2 41732  97.3798 287.5964 0013351  10.7401  30.2355 15.28257570244661
PRATHAM                 
1 41783U 16059A   21005.70166697  .00000077  00000-0  24005-4 0  9993
2 41783  97.9899  61.1708 0034342  41.0131 319.3645 14.63103058228458
ALSAT 1N                
1 41789U 16059G   21005.81724433  .00000116  00000-0  30684-4 0  9993
2 41789  97.9937  64.5833 0028823  27.6397 332.6317 14.64377726228645
LISHUI 1-01             
1 41845U 16066E   21005.79565995  .00005488  00000-0  71404-3 0  9998
2 41845  98.7320 100.8515 0280732 259.4987  97.4453 14.57227983219696
CARTOSAT-2D             
1 41948U 17008A   21005.79137002  .00000599  00000-0  31665-4 0  9997
2 41948  97.4659  68.2670 0008019  20.2642 339.8885 15.19217562215686
NAYIF-1 (EO-88)         
1 42017U 17008BX  21005.86390967  .00002336  00000-0  89979-4 0  9996
2 42017  97.3379  76.2905 0005299 340.2915  19.8119 15.27329070216433
ZHUHAI-1 02 (CAS-4B)    
1 42759U 17034B   21005.84429344  .00000332  00000-0  33467-4 0  9993
2 42759  43.0192 354.9223 0010366 232.2105 199.5180 15.10031310196562
ZHUHAI-1 01 (CAS-4A)    
1 42761U 17034D   21005.84419291  .00000343  00000-0  34076-4 0  9995
2 42761  43.0203 354.0904 0011031 232.9448 199.2251 15.10111965196563
UCLSAT                  
1 42765U 17036A   21005.80971117  .00001861  00000-0  79123-4 0  9995
2 42765  97.2746  60.3613 0012039  39.6431 320.5685 15.24188420197394
NIUSAT                  
1 42766U 17036B   21005.71195277  .00001299  00000-0  59295-4 0  9994
2 42766  97.2744  57.1683 0016072  34.4815 325.7461 15.22222656196457
CARTOSAT-2E             
1 42767U 17036C   21005.93493936  .00000562  00000-0  29813-4 0  9997
2 42767  97.3955  66.8059 0010441  58.7349 301.4907 15.19253796196273
LITUANICASAT-2          
1 42768U 17036D   21005.88838945  .00003349  00000-0  13601-3 0  9998
2 42768  97.2815  60.7912 0014758  27.6882 332.5138 15.25165886196686
AALTO-1                 
1 42775U 17036L   21005.68403031  .00001026  00000-0  47466-4 0  9995
2 42775  97.2720  57.4540 0014544  34.4311 325.7865 15.22255688196436
URSA MAIOR              
1 42776U 17036M   21005.71257986  .00001180  00000-0  53767-4 0  9998
2 42776  97.2732  57.8595 0014319  33.9722 326.2429 15.22483712196459
COMPASS 2               
1 42777U 17036N   21005.87588976  .00002643  00000-0  10917-3 0  9996
2 42777  97.2800  61.0931 0012590  30.3446 329.8519 15.24799370196631
MAX VALIER SAT          
1 42778U 17036P   21005.72901930  .00001208  00000-0  53997-4 0  9992
2 42778  97.2794  59.5045 0012876  37.1009 323.1116 15.23116348196513
PEGASUS                 
1 42784U 17036V   21005.68154075  .00001564  00000-0  67670-4 0  9992
2 42784  97.2753  59.8410 0012649  41.0297 319.1889 15.23821541196560
NUDTSAT                 
1 42787U 17036Y   21005.94239926  .00003021  00000-0  12202-3 0  9993
2 42787  97.2799  62.0022 0012510  31.5176 328.6803 15.25447334196551
SUCHAI                  
1 42788U 17036Z   21005.88937282  .00002036  00000-0  85529-4 0  9995
2 42788  97.2763  60.8344 0012077  38.4039 321.8057 15.24489655196713
SKCUBE                  
1 42789U 17036AA  21005.69648353  .00001764  00000-0  74976-4 0  9994
2 42789  97.2757  60.4305 0012022  39.5916 320.6197 15.24278303196590
VZLUSAT-1               
1 42790U 17036AB  21005.86848101  .00002763  00000-0  11200-3 0  9998
2 42790  97.2788  61.9204 0011303  36.5172 323.6835 15.25416416196695
ROBUSTA-1B              
1 42792U 17036AD  21005.68940066  .00001825  00000-0  76996-4 0  9995
2 42792  97.2760  60.7423 0011600  40.0252 320.1838 15.24489977196625
D-SAT                   
1 42794U 17036AF  21005.60206669  .00000412  00000-0  40580-4 0  9994
2 42794  97.4751  34.0358 0127086  50.5662 310.6724 14.91416552192780
NORSAT 2                
1 42828U 17042D   21005.70816735  .00000265  00000-0  31594-4 0  9992
2 42828  97.4992 244.7675 0013756 334.6851  25.3693 14.91693105189479
TECHNOSAT               
1 42829U 17042E   21005.67002988  .00000338  00000-0  39319-4 0  9990
2 42829  97.4915 243.6040 0013581 336.4140  23.6455 14.91198139189425
2017-042F               
1 42830U 17042F   21005.65056237  .00000776  00000-0  80591-4 0  9990
2 42830  97.5019 245.6235 0013520 329.7567  30.2871 14.92563666189510
FLYING LAPTOP           
1 42831U 17042G   21005.77950682 -.00000399  00000-0 -34751-4 0  9991
2 42831  97.4921 243.8890 0013552 336.5765  23.4843 14.91216758189441
CORVUS BC2              
1 42846U 17042X   21005.69139001  .00000202  00000-0  24993-4 0  9990
2 42846  97.4952 245.7897 0008803 331.1260  28.9472 14.92207396189563
CORVUS BC1              
1 42847U 17042Y   21005.87446155  .00000446  00000-0  48860-4 0  9991
2 42847  97.4956 246.1711 0008420 329.8581  30.2153 14.92309535189596
SIMPL                   
1 42983U 98067NF  21005.47475842  .00006664  00000-0  74823-4 0  9995
2 42983  51.6386   5.6657 0004273  91.2329 268.9155 15.63999054181870
CZ-4C R/B               
1 43012U 17072C   21005.91307371  .00000087  00000-0  29098-4 0  9993
2 43012  98.7315  12.9984 0128375 129.0089 232.2621 14.56131957167085
RADFXSAT (FOX-1B)       
1 43017U 17073E   21005.80402944  .00000606  00000-0  51527-4 0  9998
2 43017  97.7173 276.1643 0257300 110.7488 252.1500 14.79243175169077
EAGLESAT 1              
1 43018U 17073F   21005.74139603  .00001035  00000-0  83191-4 0  9990
2 43018  97.7172 276.7504 0254492 108.3892 254.5173 14.80108444168971
ECAMSAT                 
1 43019U 98067NG  21005.38249146  .00016545  00000-0  13088-3 0  9996
2 43019  51.6411 343.3882 0004595  87.0990 273.0534 15.71495916264480
INS-1C                  
1 43116U 18004F   21005.77201765  .00001678  00000-0  71083-4 0  9996
2 43116  97.4329  81.7089 0010555  60.3012 299.9275 15.24515116165851
FLOCK 3P'-3             
1 43119U 18004J   21005.78236285  .00001065  00000-0  47099-4 0  9995
2 43119  97.4315  80.8353 0011411  67.3347 292.9095 15.23833977165808
FLOCK 3P'-2             
1 43120U 18004K   21005.79249030  .00000881  00000-0  39787-4 0  9990
2 43120  97.4320  80.7012 0011423  67.6498 292.5949 15.23573730165790
FLOCK 3P'-1             
1 43121U 18004L   21005.91116232  .00002653  00000-0  10659-3 0  9997
2 43121  97.4320  82.0323 0010646  63.9906 296.2427 15.25784893165822
FLOCK 3P'-4             
1 43122U 18004M   21005.72489389  .00000929  00000-0  41751-4 0  9995
2 43122  97.4330  80.7152 0011313  69.6957 290.5494 15.23588237165788
MICROMAS-2A             
1 43131U 18004W   21005.85166031  .00003047  00000-0  12014-3 0  9998
2 43131  97.4294  82.8024 0010110  63.1503 297.0768 15.26300299165956
PICSAT                  
1 43132U 18004X   21005.77895938  .00001954  00000-0  80739-4 0  9990
2 43132  97.4279  81.7208 0010734  66.4006 293.8358 15.25154241165882
CNUSAIL-1               
1 43133U 18004Y   21005.77484111  .00001369  00000-0  58804-4 0  9996
2 43133  97.4260  81.0018 0010878  67.8417 292.3974 15.24340148165841
2018-004Z               
1 43134U 18004Z   21005.85661230  .00001796  00000-0  75157-4 0  9999
2 43134  97.4273  81.5888 0010601  67.1123 293.1233 15.24839243165887
FOX-1D (AO-92)          
1 43137U 18004AC  21005.86483717  .00001556  00000-0  65778-4 0  9997
2 43137  97.4260  81.4719 0010448  68.4015 291.8334 15.24691150165881
